[{"OBJECT_NAME":"STARLINK-5574","OBJECT_ID":"2023-013AH","EPOCH":"2026-03-09T22:00:01.999584","MEAN_MOTION":15.1097881,"ECCENTRICITY":6.929e-5,"INCLINATION":42.9994,"RA_OF_ASC_NODE":285.7903,"ARG_OF_PERICENTER":278.7783,"MEAN_ANOMALY":205.8969,"EPHEMERIS_TYPE":0,"CLASSIFICATION_TYPE":"U","NORAD_CAT_ID":55362,"ELEMENT_SET_NO":999,"REV_AT_EPOCH":578,"BSTAR":0.0028737942,"MEAN_MOTION_DOT":0.00048923,"MEAN_MOTION_DDOT":0},{"OBJECT_NAME":"OBJECT A","OBJECT_ID":"2024-095A","EPOCH":"2026-03-09T22:38:35.638656","MEAN_MOTION":15.12064324,"ECCENTRICITY":0.0003947,"INCLINATION":97.539,"RA_OF_ASC_NODE":149.317,"ARG_OF_PERICENTER":111.635,"MEAN_ANOMALY":248.5301,"EPHEMERIS_TYPE":0,"CLASSIFICATION_TYPE":"U","NORAD_CAT_ID":59810,"ELEMENT_SET_NO":999,"REV_AT_EPOCH":9915,"BSTAR":0.00038280559,"MEAN_MOTION_DOT":6.522e-5,"MEAN_MOTION_DDOT":0}]
